{"type": "FeatureCollection", "features": [ {"type": "Feature", "properties": {"norad_id": 40697, "name": "SENTINEL-2A", "group": "resource", "lat": -24.24257828234465, "lon": 64.71725140600768, "alt_km": 794.7693203483641, "timestamp": "2025-12-14T07:33:19.135145+00:00", "meta": {"OBJECT_NAME": "SENTINEL-2A", "OBJECT_ID": "2015-028A", "EPOCH": "2025-12-13T16:33:53.272224", "MEAN_MOTION": 14.30814225, "ECCENTRICITY": 0.00010822, "INCLINATION": 98.5687, "RA_OF_ASC_NODE": 60.2086, "ARG_OF_PERICENTER": 87.8943, "MEAN_ANOMALY": 272.2364, "EPHEMERIS_TYPE": 0, "CLASSIFICATION_TYPE": "U", "NORAD_CAT_ID": 40697, "ELEMENT_SET_NO": 999, "REV_AT_EPOCH": 54720, "BSTAR": 0.0001422295, "MEAN_MOTION_DOT": 3.29e-06, "MEAN_MOTION_DDOT": 0}, "tle": {"line1": "1 40697U 15028A   25347.69019991  .00000329  00000+0  14223-3 0  9995", "line2": "2 40697  98.5687  60.2086 0001082  87.8943 272.2364 14.30814225547207"}}, "geometry": {"type": "Point", "coordinates": [64.71725140600768, -24.24257828234465]}}, {"type": "Feature", "properties": {"norad_id": 40701, "name": "GAOFEN-8", "group": "resource", "lat": -81.89389857502869, "lon": -121.87065521201195, "alt_km": 463.6030509579896, "timestamp": "2025-12-14T07:33:19.135156+00:00", "meta": {"OBJECT_NAME": "GAOFEN-8", "OBJECT_ID": "2015-030A", "EPOCH": "2025-12-13T16:19:38.349408", "MEAN_MOTION": 15.38600851, "ECCENTRICITY": 0.00116728, "INCLINATION": 97.6913, "RA_OF_ASC_NODE": 165.8662, "ARG_OF_PERICENTER": 134.6295, "MEAN_ANOMALY": 225.5903, "EPHEMERIS_TYPE": 0, "CLASSIFICATION_TYPE": "U", "NORAD_CAT_ID": 40701, "ELEMENT_SET_NO": 999, "REV_AT_EPOCH": 58285, "BSTAR": 0.00084606521, "MEAN_MOTION_DOT": 0.00032331, "MEAN_MOTION_DDOT": 0}, "tle": {"line1": "1 40701U 15030A   25347.68030497  .00032331  00000+0  84607-3 0  9998", "line2": "2 40701  97.6913 165.8662 0011672 134.6295 225.5903 15.38600851582851"}}, "geometry": {"type": "Point", "coordinates": [-121.87065521201195, -81.89389857502869]}}, {"type": "Feature", "properties": {"norad_id": 40718, "name": "CARBONITE 1 (CBNT-1)", "group": "resource", "lat": -66.69501609865102, "lon": -28.867480255965265, "alt_km": 624.6919960080213, "timestamp": "2025-12-14T07:33:19.135166+00:00", "meta": {"OBJECT_NAME": "CARBONITE 1 (CBNT-1)", "OBJECT_ID": "2015-032D", "EPOCH": "2025-12-13T15:51:54.102240", "MEAN_MOTION": 14.82752732, "ECCENTRICITY": 0.00145077, "INCLINATION": 97.6403, "RA_OF_ASC_NODE": 168.6644, "ARG_OF_PERICENTER": 178.2814, "MEAN_ANOMALY": 181.8452, "EPHEMERIS_TYPE": 0, "CLASSIFICATION_TYPE": "U", "NORAD_CAT_ID": 40718, "ELEMENT_SET_NO": 999, "REV_AT_EPOCH": 56184, "BSTAR": 0.00049545092, "MEAN_MOTION_DOT": 3.96e-05, "MEAN_MOTION_DDOT": 0}, "tle": {"line1": "1 40718U 15032D   25347.66104285  .00003960  00000+0  49545-3 0  9991", "line2": "2 40718  97.6403 168.6644 0014507 178.2814 181.8452 14.82752732561848"}}, "geometry": {"type": "Point", "coordinates": [-28.867480255965265, -66.69501609865102]}}, {"type": "Feature", "properties": {"norad_id": 40878, "name": "YAOGAN-27", "group": "resource", "lat": 77.35209110275882, "lon": -74.7314239032343, "alt_km": 1197.87930282441, "timestamp": "2025-12-14T07:33:19.135181+00:00", "meta": {"OBJECT_NAME": "YAOGAN-27", "OBJECT_ID": "2015-040A", "EPOCH": "2025-12-13T16:32:31.338240", "MEAN_MOTION": 13.16059608, "ECCENTRICITY": 0.0007635, "INCLINATION": 100.1016, "RA_OF_ASC_NODE": 337.2664, "ARG_OF_PERICENTER": 284.6861, "MEAN_ANOMALY": 75.3406, "EPHEMERIS_TYPE": 0, "CLASSIFICATION_TYPE": "U", "NORAD_CAT_ID": 40878, "ELEMENT_SET_NO": 999, "REV_AT_EPOCH": 49326, "BSTAR": -0.00080197742, "MEAN_MOTION_DOT": -3.47e-06, "MEAN_MOTION_DDOT": 0}, "tle": {"line1": "1 40878U 15040A   25347.68925160 -.00000347  00000+0 -80198-3 0  9999", "line2": "2 40878 100.1016 337.2664 0007635 284.6861  75.3406 13.16059608493263"}}, "geometry": {"type": "Point", "coordinates": [-74.7314239032343, 77.35209110275882]}}, {"type": "Feature", "properties": {"norad_id": 40894, "name": "GAOFEN-9 01", "group": "resource", "lat": 12.868996683323152, "lon": -151.0369251262967, "alt_km": 637.4951840792255, "timestamp": "2025-12-14T07:33:19.135192+00:00", "meta": {"OBJECT_NAME": "GAOFEN-9 01", "OBJECT_ID": "2015-047A", "EPOCH": "2025-12-13T16:13:36.940800", "MEAN_MOTION": 14.82425972, "ECCENTRICITY": 0.00283091, "INCLINATION": 97.6546, "RA_OF_ASC_NODE": 26.5912, "ARG_OF_PERICENTER": 31.3692, "MEAN_ANOMALY": 328.9204, "EPHEMERIS_TYPE": 0, "CLASSIFICATION_TYPE": "U", "NORAD_CAT_ID": 40894, "ELEMENT_SET_NO": 999, "REV_AT_EPOCH": 55270, "BSTAR": 0.00022212091, "MEAN_MOTION_DOT": 1.741e-05, "MEAN_MOTION_DDOT": 0}, "tle": {"line1": "1 40894U 15047A   25347.67612200  .00001741  00000+0  22212-3 0  9991", "line2": "2 40894  97.6546  26.5912 0028309  31.3692 328.9204 14.82425972552706"}}, "geometry": {"type": "Point", "coordinates": [-151.0369251262967, 12.868996683323152]}}, {"type": "Feature", "properties": {"norad_id": 41026, "name": "YAOGAN-28", "group": "resource", "lat": -15.634287041726905, "lon": -55.988100936755814, "alt_km": 495.2643400792849, "timestamp": "2025-12-14T07:33:19.135203+00:00", "meta": {"OBJECT_NAME": "YAOGAN-28", "OBJECT_ID": "2015-064A", "EPOCH": "2025-12-13T16:31:19.311744", "MEAN_MOTION": 15.24376338, "ECCENTRICITY": 0.00123994, "INCLINATION": 97.2801, "RA_OF_ASC_NODE": 125.4536, "ARG_OF_PERICENTER": 122.9933, "MEAN_ANOMALY": 237.2499, "EPHEMERIS_TYPE": 0, "CLASSIFICATION_TYPE": "U", "NORAD_CAT_ID": 41026, "ELEMENT_SET_NO": 999, "REV_AT_EPOCH": 56239, "BSTAR": 0.00045650045, "MEAN_MOTION_DOT": 0.00011142, "MEAN_MOTION_DDOT": 0}, "tle": {"line1": "1 41026U 15064A   25347.68841796  .00011142  00000+0  45650-3 0  9990", "line2": "2 41026  97.2801 125.4536 0012399 122.9933 237.2499 15.24376338562394"}}, "geometry": {"type": "Point", "coordinates": [-55.988100936755814, -15.634287041726905]}}, {"type": "Feature", "properties": {"norad_id": 41038, "name": "YAOGAN-29", "group": "resource", "lat": 56.23710589261952, "lon": -0.6874603102416703, "alt_km": 614.9093818027868, "timestamp": "2025-12-14T07:33:19.135213+00:00", "meta": {"OBJECT_NAME": "YAOGAN-29", "OBJECT_ID": "2015-069A", "EPOCH": "2025-12-13T16:43:25.273056", "MEAN_MOTION": 14.82885115, "ECCENTRICITY": 9.95e-06, "INCLINATION": 98.0223, "RA_OF_ASC_NODE": 10.8716, "ARG_OF_PERICENTER": 281.8676, "MEAN_ANOMALY": 78.2526, "EPHEMERIS_TYPE": 0, "CLASSIFICATION_TYPE": "U", "NORAD_CAT_ID": 41038, "ELEMENT_SET_NO": 999, "REV_AT_EPOCH": 54313, "BSTAR": 0.00014713133, "MEAN_MOTION_DOT": 1.138e-05, "MEAN_MOTION_DDOT": 0}, "tle": {"line1": "1 41038U 15069A   25347.69682029  .00001138  00000+0  14713-3 0  9991", "line2": "2 41038  98.0223  10.8716 0000099 281.8676  78.2526 14.82885115543130"}}, "geometry": {"type": "Point", "coordinates": [-0.6874603102416703, 56.23710589261952]}}, {"type": "Feature", "properties": {"norad_id": 41167, "name": "KENT RIDGE 1", "group": "resource", "lat": -1.7894143060160586, "lon": 26.176728890329862, "alt_km": 493.4644170175925, "timestamp": "2025-12-14T07:33:19.135224+00:00", "meta": {"OBJECT_NAME": "KENT RIDGE 1", "OBJECT_ID": "2015-077B", "EPOCH": "2025-12-12T23:16:30.783072", "MEAN_MOTION": 15.21639218, "ECCENTRICITY": 0.00085187, "INCLINATION": 14.9786, "RA_OF_ASC_NODE": 209.434, "ARG_OF_PERICENTER": 133.9708, "MEAN_ANOMALY": 226.1317, "EPHEMERIS_TYPE": 0, "CLASSIFICATION_TYPE": "U", "NORAD_CAT_ID": 41167, "ELEMENT_SET_NO": 999, "REV_AT_EPOCH": 55267, "BSTAR": 0.00025287461, "MEAN_MOTION_DOT": 6.651e-05, "MEAN_MOTION_DDOT": 0}, "tle": {"line1": "1 41167U 15077B   25346.96980073  .00006651  00000+0  25287-3 0  9995", "line2": "2 41167  14.9786 209.4340 0008518 133.9708 226.1317 15.21639218552676"}}, "geometry": {"type": "Point", "coordinates": [26.176728890329862, -1.7894143060160586]}}, {"type": "Feature", "properties": {"norad_id": 41194, "name": "GAOFEN-4", "group": "resource", "lat": -0.1249836084466169, "lon": -57.73259709000911, "alt_km": 35793.96083900791, "timestamp": "2025-12-14T07:33:19.135239+00:00", "meta": {"OBJECT_NAME": "GAOFEN-4", "OBJECT_ID": "2015-083A", "EPOCH": "2025-12-13T16:48:21.582720", "MEAN_MOTION": 1.00269213, "ECCENTRICITY": 0.0003384, "INCLINATION": 0.173, "RA_OF_ASC_NODE": 81.2734, "ARG_OF_PERICENTER": 101.0783, "MEAN_ANOMALY": 258.0516, "EPHEMERIS_TYPE": 0, "CLASSIFICATION_TYPE": "U", "NORAD_CAT_ID": 41194, "ELEMENT_SET_NO": 999, "REV_AT_EPOCH": 3666, "BSTAR": 0, "MEAN_MOTION_DOT": -3.19e-06, "MEAN_MOTION_DDOT": 0}, "tle": {"line1": "1 41194U 15083A   25347.70024980 -.00000319  00000+0  00000+0 0  9999", "line2": "2 41194   0.1730  81.2734 0003384 101.0783 258.0516  1.00269213 36667"}}, "geometry": {"type": "Point", "coordinates": [-57.73259709000911, -0.1249836084466169]}}, {"type": "Feature", "properties": {"norad_id": 41240, "name": "JASON-3", "group": "resource", "lat": 45.967949013480826, "lon": -178.10356573533522, "alt_km": 1310.3081342976184, "timestamp": "2025-12-14T07:33:19.135251+00:00", "meta": {"OBJECT_NAME": "JASON-3", "OBJECT_ID": "2016-002A", "EPOCH": "2025-12-13T16:22:26.647968", "MEAN_MOTION": 12.87626567, "ECCENTRICITY": 0.00071426, "INCLINATION": 66.0391, "RA_OF_ASC_NODE": 155.8426, "ARG_OF_PERICENTER": 270.8565, "MEAN_ANOMALY": 89.1635, "EPHEMERIS_TYPE": 0, "CLASSIFICATION_TYPE": "U", "NORAD_CAT_ID": 41240, "ELEMENT_SET_NO": 999, "REV_AT_EPOCH": 46336, "BSTAR": 0.00015740841, "MEAN_MOTION_DOT": -2.2e-07, "MEAN_MOTION_DDOT": 0}, "tle": {"line1": "1 41240U 16002A   25347.68225287 -.00000022  00000+0  15741-3 0  9996", "line2": "2 41240  66.0391 155.8426 0007142 270.8565  89.1635 12.87626567463360"}}, "geometry": {"type": "Point", "coordinates": [-178.10356573533522, 45.967949013480826]}}]}